{
  "type": "FeatureCollection",
  "features": [
    {
      "type": "Feature",
      "properties": {
        "norad_id": 66850,
        "name": "STARLINK-36105",
        "group": "last-30-days",
        "lat": -42.6758189559747,
        "lon": -0.42772209753812573,
        "alt_km": 346.67147423723327,
        "timestamp": "2025-12-19T10:49:59.923601+00:00",
        "meta_object_name": "STARLINK-36105",
        "meta_object_id": "2025-281C",
        "meta_epoch": "2025-12-18T22:00:00.999936",
        "meta_mean_motion": 15.75068961,
        "meta_eccentricity": 0.00017606,
        "meta_inclination": 43.001,
        "meta_ra_of_asc_node": 84.4688,
        "meta_arg_of_pericenter": 256.9436,
        "meta_mean_anomaly": 223.555,
        "meta_ephemeris_type": 0,
        "meta_classification_type": "U",
        "meta_norad_cat_id": 66850,
        "meta_element_set_no": 999,
        "meta_rev_at_epoch": 238,
        "meta_bstar": -8.7193228e-05,
        "meta_mean_motion_dot": -0.00013867,
        "meta_mean_motion_ddot": 0,
        "tle_line1": "1 66850U 25281C   25352.91667824 -.00013867  00000+0 -87193-4 0  9991",
        "tle_line2": "2 66850  43.0010  84.4688 0001760 256.9436 223.5550 15.75068961  2385"
      },
      "geometry": {
        "type": "Point",
        "coordinates": [
          -0.42772209753812573,
          -42.6758189559747
        ]
      }
    },
    {
      "type": "Feature",
      "properties": {
        "norad_id": 66851,
        "name": "STARLINK-36094",
        "group": "last-30-days",
        "lat": -42.45827368022675,
        "lon": 2.1392535297610347,
        "alt_km": 346.7210236068122,
        "timestamp": "2025-12-19T10:49:59.923611+00:00",
        "meta_object_name": "STARLINK-36094",
        "meta_object_id": "2025-281D",
        "meta_epoch": "2025-12-18T22:00:00.999936",
        "meta_mean_motion": 15.75091909,
        "meta_eccentricity": 0.00018034,
        "meta_inclination": 43.001,
        "meta_ra_of_asc_node": 84.4638,
        "meta_arg_of_pericenter": 268.5198,
        "meta_mean_anomaly": 213.9153,
        "meta_ephemeris_type": 0,
        "meta_classification_type": "U",
        "meta_norad_cat_id": 66851,
        "meta_element_set_no": 999,
        "meta_rev_at_epoch": 238,
        "meta_bstar": -0.00051573558,
        "meta_mean_motion_dot": -0.00079145,
        "meta_mean_motion_ddot": 0,
        "tle_line1": "1 66851U 25281D   25352.91667824 -.00079145  00000+0 -51574-3 0  9996",
        "tle_line2": "2 66851  43.0010  84.4638 0001803 268.5198 213.9153 15.75091909  2383"
      },
      "geometry": {
        "type": "Point",
        "coordinates": [
          2.1392535297610347,
          -42.45827368022675
        ]
      }
    },
    {
      "type": "Feature",
      "properties": {
        "norad_id": 66852,
        "name": "STARLINK-35992",
        "group": "last-30-days",
        "lat": -42.17860179961389,
        "lon": 4.726181287439797,
        "alt_km": 346.37017206005567,
        "timestamp": "2025-12-19T10:49:59.923623+00:00",
        "meta_object_name": "STARLINK-35992",
        "meta_object_id": "2025-281E",
        "meta_epoch": "2025-12-18T22:00:00.999936",
        "meta_mean_motion": 15.75026574,
        "meta_eccentricity": 0.00018578,
        "meta_inclination": 43.0007,
        "meta_ra_of_asc_node": 84.4592,
        "meta_arg_of_pericenter": 277.0938,
        "meta_mean_anomaly": 207.2361,
        "meta_ephemeris_type": 0,
        "meta_classification_type": "U",
        "meta_norad_cat_id": 66852,
        "meta_element_set_no": 999,
        "meta_rev_at_epoch": 238,
        "meta_bstar": 0.00057847924,
        "meta_mean_motion_dot": 0.0008928,
        "meta_mean_motion_ddot": 0,
        "tle_line1": "1 66852U 25281E   25352.91667824  .00089280  00000+0  57848-3 0  9996",
        "tle_line2": "2 66852  43.0007  84.4592 0001857 277.0938 207.2361 15.75026574  2388"
      },
      "geometry": {
        "type": "Point",
        "coordinates": [
          4.726181287439797,
          -42.17860179961389
        ]
      }
    },
    {
      "type": "Feature",
      "properties": {
        "norad_id": 66853,
        "name": "STARLINK-35986",
        "group": "last-30-days",
        "lat": -41.84905394946056,
        "lon": 7.234801747420123,
        "alt_km": 346.8958046613461,
        "timestamp": "2025-12-19T10:49:59.923633+00:00",
        "meta_object_name": "STARLINK-35986",
        "meta_object_id": "2025-281F",
        "meta_epoch": "2025-12-18T22:00:00.999936",
        "meta_mean_motion": 15.75103001,
        "meta_eccentricity": 0.0001442,
        "meta_inclination": 43.0007,
        "meta_ra_of_asc_node": 84.4544,
        "meta_arg_of_pericenter": 281.3137,
        "meta_mean_anomaly": 204.9391,
        "meta_ephemeris_type": 0,
        "meta_classification_type": "U",
        "meta_norad_cat_id": 66853,
        "meta_element_set_no": 999,
        "meta_rev_at_epoch": 238,
        "meta_bstar": -0.00049827502,
        "meta_mean_motion_dot": -0.00076538,
        "meta_mean_motion_ddot": 0,
        "tle_line1": "1 66853U 25281F   25352.91667824 -.00076538  00000+0 -49828-3 0  9990",
        "tle_line2": "2 66853  43.0007  84.4544 0001442 281.3137 204.9391 15.75103001  2383"
      },
      "geometry": {
        "type": "Point",
        "coordinates": [
          7.234801747420123,
          -41.84905394946056
        ]
      }
    },
    {
      "type": "Feature",
      "properties": {
        "norad_id": 66854,
        "name": "STARLINK-36087",
        "group": "last-30-days",
        "lat": -41.459854572530745,
        "lon": 9.74977043968955,
        "alt_km": 346.2910014850504,
        "timestamp": "2025-12-19T10:49:59.923643+00:00",
        "meta_object_name": "STARLINK-36087",
        "meta_object_id": "2025-281G",
        "meta_epoch": "2025-12-18T22:00:00.999936",
        "meta_mean_motion": 15.75025438,
        "meta_eccentricity": 0.00018619,
        "meta_inclination": 43.001,
        "meta_ra_of_asc_node": 84.4494,
        "meta_arg_of_pericenter": 285.3302,
        "meta_mean_anomaly": 202.8086,
        "meta_ephemeris_type": 0,
        "meta_classification_type": "U",
        "meta_norad_cat_id": 66854,
        "meta_element_set_no": 999,
        "meta_rev_at_epoch": 238,
        "meta_bstar": 0.00070330646,
        "meta_mean_motion_dot": 0.00108897,
        "meta_mean_motion_ddot": 0,
        "tle_line1": "1 66854U 25281G   25352.91667824  .00108897  00000+0  70331-3 0  9996",
        "tle_line2": "2 66854  43.0010  84.4494 0001861 285.3302 202.8086 15.75025438  2380"
      },
      "geometry": {
        "type": "Point",
        "coordinates": [
          9.74977043968955,
          -41.459854572530745
        ]
      }
    },
    {
      "type": "Feature",
      "properties": {
        "norad_id": 66855,
        "name": "STARLINK-36090",
        "group": "last-30-days",
        "lat": -41.023856988311486,
        "lon": 12.192823540063612,
        "alt_km": 347.12078798433777,
        "timestamp": "2025-12-19T10:49:59.923655+00:00",
        "meta_object_name": "STARLINK-36090",
        "meta_object_id": "2025-281H",
        "meta_epoch": "2025-12-18T22:00:00.999936",
        "meta_mean_motion": 15.75098089,
        "meta_eccentricity": 0.0001182,
        "meta_inclination": 43.0011,
        "meta_ra_of_asc_node": 84.4449,
        "meta_arg_of_pericenter": 269.2325,
        "meta_mean_anomaly": 220.8641,
        "meta_ephemeris_type": 0,
        "meta_classification_type": "U",
        "meta_norad_cat_id": 66855,
        "meta_element_set_no": 999,
        "meta_rev_at_epoch": 226,
        "meta_bstar": -0.00061512263,
        "meta_mean_motion_dot": -0.00094156,
        "meta_mean_motion_ddot": 0,
        "tle_line1": "1 66855U 25281H   25352.91667824 -.00094156  00000+0 -61512-3 0  9992",
        "tle_line2": "2 66855  43.0011  84.4449 0001182 269.2325 220.8641 15.75098089  2260"
      },
      "geometry": {
        "type": "Point",
        "coordinates": [
          12.192823540063612,
          -41.023856988311486
        ]
      }
    },
    {
      "type": "Feature",
      "properties": {
        "norad_id": 66856,
        "name": "STARLINK-36072",
        "group": "last-30-days",
        "lat": -40.52923005156651,
        "lon": 14.634046866546337,
        "alt_km": 346.63894718998745,
        "timestamp": "2025-12-19T10:49:59.923667+00:00",
        "meta_object_name": "STARLINK-36072",
        "meta_object_id": "2025-281J",
        "meta_epoch": "2025-12-18T22:00:00.999936",
        "meta_mean_motion": 15.75090696,
        "meta_eccentricity": 0.00018797,
        "meta_inclination": 43.0008,
        "meta_ra_of_asc_node": 84.4393,
        "meta_arg_of_pericenter": 270.3142,
        "meta_mean_anomaly": 221.7051,
        "meta_ephemeris_type": 0,
        "meta_classification_type": "U",
        "meta_norad_cat_id": 66856,
        "meta_element_set_no": 999,
        "meta_rev_at_epoch": 238,
        "meta_bstar": -0.00055131293,
        "meta_mean_motion_dot": -0.00084516,
        "meta_mean_motion_ddot": 0,
        "tle_line1": "1 66856U 25281J   25352.91667824 -.00084516  00000+0 -55131-3 0  9992",
        "tle_line2": "2 66856  43.0008  84.4393 0001879 270.3142 221.7051 15.75090696  2382"
      },
      "geometry": {
        "type": "Point",
        "coordinates": [
          14.634046866546337,
          -40.52923005156651
        ]
      }
    }
  ]
}